{
"type":"FeatureCollection",
"features":
[
{
"type":"Feature",
"id":1,
"properties":
{
"name": "SCT Warszawa",
"updated": "2026-01-31",
"source": "um.warszawa.pl"
},
"geometry":
{
"type":"Polygon",
"coordinates":
[
[
[67.3814865,46.0729996],[67.3759891,46.0711528],[67.3758147,46.0711027],[67.3751271,46.0709592],[67.3743835,46.0708750],
[67.3735380,46.0708681],[67.3710901,46.0709911],[67.3669248,46.0710893],[67.3642828,46.0711398],[67.3634767,46.0711422],
[67.3627594,46.0710945],[67.3622988,46.0710103],[67.3616571,46.0708306],[67.3605679,46.0704073],[67.3526825,46.0673489],
[67.3506435,46.0663980],[67.3499585,46.0659787],[67.3494002,46.0654510],[67.3489866,46.0649288],[67.3486720,46.0639290],
[67.3486145,46.0624525],[67.3484173,46.0606241],[67.3477349,46.0582090],[67.3470344,46.0561215],[67.3469572,46.0537282],
[67.3477226,46.0495398],[67.3478254,46.0488111],[67.3481263,46.0480473],[67.3481214,46.0474773],[67.3482227,46.0468488],
[67.3484279,46.0463259],[67.3486671,46.0452789],[67.3490703,46.0447254],[67.3492814,46.0442526],[67.3492158,46.0437779],
[67.3492983,46.0426384],[67.3503481,46.0429205],[67.3514508,46.0431791],[67.3525668,46.0434332],[67.3541648,46.0438298],
[67.3553526,46.0436786],[67.3556663,46.0438404],[67.3562425,46.0436301],[67.3597468,46.0422824],[67.3626553,46.0411586],
[67.3640437,46.0412552],[67.3657418,46.0413450],[67.3661294,46.0414117],[67.3664311,46.0414960],[67.3670181,46.0414501],
[67.3673215,46.0414249],[67.3682231,46.0414771],[67.3699604,46.0415855],[67.3718424,46.0417088],[67.3735136,46.0418305],
[67.3740668,46.0418346],[67.3755075,46.0419547],[67.3769354,46.0420473],[67.3780278,46.0421147],[67.3787590,46.0421111],
[67.3800176,46.0420748],[67.3816789,46.0419869],[67.3823974,46.0419513],[67.3828779,46.0419777],[67.3835222,46.0420509],
[67.3841132,46.0421694],[67.3848031,46.0422795],[67.3867710,46.0427960],[67.3887516,46.0433355],[67.3883430,46.0433506],
[67.3881765,46.0434634],[67.3881328,46.0437275],[67.3882494,46.0438515],[67.3885774,46.0439361],[67.3888815,46.0438655],
[67.3892053,46.0437995],[67.3894818,46.0438062],[67.3897508,46.0438721],[67.3900790,46.0439430],[67.3905850,46.0440153],
[67.3911634,46.0440926],[67.3914269,46.0440901],[67.3939645,46.0447981],[67.3962460,46.0454541],[67.3967113,46.0455944],
[67.3981178,46.0461844],[67.3984491,46.0464697],[67.3997823,46.0475150],[67.3999919,46.0475851],[67.4002760,46.0475280],
[67.4005856,46.0475213],[67.4007366,46.0471486],[67.4008765,46.0470494],[67.4009957,46.0470093],[67.4063231,46.0482456],
[67.4064786,46.0484018],[67.4063418,46.0487107],[67.4061203,46.0489643],[67.4059314,46.0492409],[67.4062848,46.0493759],
[67.4064244,46.0492904],[67.4068610,46.0491707],[67.4080569,46.0489340],[67.4081433,46.0488845],[67.4083480,46.0488542],
[67.4085853,46.0488424],[67.4087628,46.0488575],[67.4115215,46.0496863],[67.4118816,46.0498123],[67.4120648,46.0498867],
[67.4127595,46.0500883],[67.4136372,46.0503688],[67.4154588,46.0509122],[67.4160024,46.0510898],[67.4162838,46.0511923],
[67.4169245,46.0514710],[67.4172390,46.0515647],[67.4181350,46.0519274],[67.4192493,46.0526202],[67.4203614,46.0534451],
[67.4205354,46.0536698],[67.4207345,46.0539632],[67.4209978,46.0543618],[67.4213704,46.0545198],[67.4216197,46.0545720],
[67.4237320,46.0577474],[67.4250027,46.0596717],[67.4252126,46.0601063],[67.4253794,46.0607501],[67.4249954,46.0608745],
[67.4248876,46.0610194],[67.4248368,46.0612970],[67.4249967,46.0615716],[67.4251641,46.0625662],[67.4254935,46.0652522],
[67.4257009,46.0669803],[67.4258234,46.0675188],[67.4259640,46.0677659],[67.4262859,46.0681830],[67.4217963,46.0694126],
[67.4123956,46.0723608],[67.3964975,46.0772446],[67.3955216,46.0773736],[67.3940641,46.0771803],[67.3869680,46.0749044],
[67.3814865,46.0729996]
]
]
}
}
]
}