{
"type":"FeatureCollection",
"features":
[
{
"type":"Feature",
"id":1,
"properties":
{
"name": "SCT Kraków",
"updated": "2026-01-15",
"source": ""
},
"geometry":
{
"type":"Polygon",
"coordinates":
[
[
[19.9718953,50.1069002],[19.9719756,50.1068811],[19.9721594,50.1068317],[19.9722718,50.1068065],[19.9732414,50.1066995],
[19.9735708,50.1066585],[19.9737921,50.1066328],[19.9746159,50.1065340],[19.9749895,50.1064998],[19.9752712,50.1064628],
[19.9756359,50.1064059],[19.9757434,50.1063787],[19.9758650,50.1063484],[19.9759721,50.1063142],[19.9760853,50.1062829],
[19.9763336,50.1062108],[19.9766711,50.1061286],[19.9767883,50.1060869],[19.9773829,50.1058982],[19.9775126,50.1058717],
[19.9777326,50.1058422],[19.9779112,50.1058331],[19.9779664,50.1058338],[19.9783876,50.1058599],[19.9786203,50.1058688],
[19.9786543,50.1058674],[19.9787302,50.1058677],[19.9789273,50.1058430],[19.9790194,50.1058246],[19.9791703,50.1057836],
[19.9792443,50.1057613],[19.9793084,50.1057363],[19.9795360,50.1056438],[19.9799905,50.1054424],[19.9802257,50.1053146],
[19.9803195,50.1052589],[19.9804133,50.1052032],[19.9804873,50.1051553],[19.9805410,50.1051201],[19.9807318,50.1049620],
[19.9810281,50.1051724],[19.9811543,50.1052972],[19.9812533,50.1053930],[19.9813736,50.1055683],[19.9815155,50.1055498],
[19.9815315,50.1055479],[19.9816785,50.1055303],[19.9818393,50.1055172],[19.9823856,50.1054894],[19.9825961,50.1054649],
[19.9827027,50.1054496],[19.9828170,50.1054328],[19.9829564,50.1054098],[19.9832358,50.1053597],[19.9833122,50.1053440],
[19.9835424,50.1053006],[19.9837384,50.1052665],[19.9840582,50.1052132],[19.9844913,50.1051431],[19.9849712,50.1050809],
[19.9852700,50.1050374],[19.9855528,50.1049923],[19.9858330,50.1049427],[19.9866898,50.1047858],[19.9871254,50.1049135],
[19.9871244,50.1049198],[19.9871201,50.1049502],[19.9871181,50.1049648],[19.9874242,50.1050743],[19.9874535,50.1050848],
[19.9878543,50.1052282],[19.9879731,50.1052427],[19.9882515,50.1052765],[19.9883053,50.1052831],[19.9883148,50.1052787],
[19.9885688,50.1051595],[19.9887358,50.1051280],[19.9890627,50.1052173],[19.9893696,50.1053155],[19.9894222,50.1053323],
[19.9895165,50.1053624],[19.9897789,50.1055570],[19.9900760,50.1057228],[19.9901253,50.1057503],[19.9902018,50.1057931],
[19.9904095,50.1059093],[19.9907647,50.1061195],[19.9910195,50.1062126],[19.9910288,50.1062162],[19.9913974,50.1063181],
[19.9917247,50.1064192],[19.9919577,50.1064880],[19.9920057,50.1065064],[19.9920441,50.1065211],[19.9920646,50.1065291],
[19.9925772,50.1066406],[19.9928431,50.1067039],[19.9932606,50.1067758],[19.9936737,50.1068435],[19.9940899,50.1069117],
[19.9942546,50.1069339],[19.9944222,50.1069565],[19.9946932,50.1069932],[19.9948166,50.1070098],[19.9948406,50.1070131],
[19.9948807,50.1070068],[19.9949037,50.1070033],[19.9953944,50.1070392],[19.9956447,50.1070752],[19.9957327,50.1070844],
[19.9965106,50.1071654],[19.9971364,50.1071773],[19.9979327,50.1072112],[19.9979571,50.1072122],[19.9980157,50.1072129],
[19.9980829,50.1072136],[19.9986785,50.1072203],[19.9990706,50.1072225],[19.9995517,50.1072221],[19.9999011,50.1072463],
[20.0000970,50.1072416],[20.0002922,50.1072369],[20.0003371,50.1072359],[20.0004490,50.1072336],[20.0004611,50.1072333],
[20.0007839,50.1072264],[20.0008329,50.1072254],[20.0008511,50.1072250],[20.0009399,50.1072235],[20.0012063,50.1072186],
[20.0013611,50.1072158],[20.0015120,50.1072132],[20.0017555,50.1072088],[20.0019417,50.1071983],[20.0023122,50.1071765],
[20.0028033,50.1071506],[20.0030526,50.1071376],[20.0036727,50.1071050],[20.0043258,50.1071428],[20.0045627,50.1071671],
[20.0046072,50.1071590],[20.0047718,50.1071526],[20.0060717,50.1071014],[20.0063189,50.1070917],[20.0077553,50.1070290],
[20.0089725,50.1069710],[20.0105784,50.1068849],[20.0106118,50.1068835],[20.0109047,50.1068705],[20.0115253,50.1068429],
[20.0116933,50.1068355],[20.0117098,50.1068347],[20.0124812,50.1067978],[20.0129199,50.1067769],[20.0130627,50.1067584],
[20.0131010,50.1067536],[20.0131884,50.1067345],[20.0133906,50.1067182],[20.0136609,50.1067081],[20.0139858,50.1066998],
[20.0142898,50.1066900],[20.0144518,50.1066829],[20.0145161,50.1066830],[20.0146545,50.1066832],[20.0149574,50.1066736],
[20.0153251,50.1066641],[20.0156709,50.1066431],[20.0159435,50.1066289],[20.0162613,50.1066218],[20.0163811,50.1066062],
[20.0173223,50.1064807],[20.0175822,50.1064461],[20.0181510,50.1063140],[20.0183809,50.1062605],[20.0191281,50.1060547],
[20.0199368,50.1058291],[20.0206077,50.1056166],[20.0216325,50.1053427],[20.0221111,50.1051838],[20.0228896,50.1047742],
[20.0230731,50.1046661],[20.0237664,50.1042572],[20.0238725,50.1041946],[20.0242564,50.1039459],[20.0244976,50.1039655],
[20.0284532,50.1009389],[20.0294490,50.1000963],[20.0341956,50.0958015],[20.0350621,50.0950795],[20.0353539,50.0948825],
[20.0359551,50.0945437],[20.0349507,50.0939015],[20.0349184,50.0938265],[20.0349327,50.0933673],[20.0358493,50.0933746],
[20.0367734,50.0932769],[20.0374441,50.0931720],[20.0384638,50.0929404],[20.0391595,50.0928033],[20.0473799,50.0908578],
[20.0481281,50.0907112],[20.0489799,50.0906120],[20.0520368,50.0900804],[20.0526482,50.0898946],[20.0531520,50.0897423],
[20.0536997,50.0895810],[20.0539282,50.0893358],[20.0540814,50.0889586],[20.0541827,50.0887529],[20.0543078,50.0885716],
[20.0544162,50.0884713],[20.0545479,50.0884183],[20.0612813,50.0878397],[20.0620807,50.0878440],[20.0633116,50.0879235],
[20.0639716,50.0879154],[20.0648215,50.0878539],[20.0650505,50.0877961],[20.0651753,50.0877271],[20.0652259,50.0876851],
[20.0653087,50.0875198],[20.0659649,50.0795537],[20.0659432,50.0795095],[20.0658989,50.0794835],[20.0658480,50.0794724],
[20.0632608,50.0791402],[20.0630124,50.0790966],[20.0624583,50.0789549],[20.0625998,50.0786669],[20.0626491,50.0775521],
[20.0627472,50.0740531],[20.0628789,50.0736532],[20.0631548,50.0731772],[20.0648787,50.0711982],[20.0665722,50.0694336],
[20.0676603,50.0684148],[20.0680032,50.0681301],[20.0679657,50.0681261],[20.0679957,50.0681015],[20.0679699,50.0680990],
[20.0680162,50.0680371],[20.0680678,50.0680423],[20.0680959,50.0680192],[20.0681348,50.0680237],[20.0698047,50.0667608],
[20.0707315,50.0659540],[20.0717052,50.0651580],[20.0723538,50.0645487],[20.0725303,50.0643102],[20.0729840,50.0637804],
[20.0735279,50.0629694],[20.0740354,50.0620646],[20.0744237,50.0615013],[20.0745762,50.0612043],[20.0747463,50.0605718],
[20.0748527,50.0598898],[20.0748882,50.0592352],[20.0748559,50.0585637],[20.0748004,50.0581274],[20.0746824,50.0575045],
[20.0741767,50.0552851],[20.0738784,50.0543696],[20.0733846,50.0531239],[20.0730368,50.0523220],[20.0727283,50.0516993],
[20.0727610,50.0516859],[20.0715867,50.0493188],[20.0709175,50.0478712],[20.0690693,50.0440850],[20.0687131,50.0434911],
[20.0684119,50.0430529],[20.0680062,50.0425294],[20.0676299,50.0420945],[20.0672393,50.0416859],[20.0662925,50.0408033],
[20.0656052,50.0401218],[20.0651885,50.0397393],[20.0645374,50.0391813],[20.0641446,50.0387968],[20.0638366,50.0384001],
[20.0636252,50.0380909],[20.0634354,50.0376870],[20.0630022,50.0365990],[20.0629163,50.0363065],[20.0628537,50.0359024],
[20.0629188,50.0347083],[20.0629196,50.0343297],[20.0628228,50.0322544],[20.0628309,50.0319600],[20.0627629,50.0308189],
[20.0619338,50.0220754],[20.0618296,50.0213028],[20.0616556,50.0193956],[20.0616286,50.0194024],[20.0614517,50.0174251],
[20.0614281,50.0167954],[20.0614168,50.0166925],[20.0613749,50.0165204],[20.0613036,50.0163622],[20.0612942,50.0163605],
[20.0612903,50.0163546],[20.0612967,50.0163493],[20.0611902,50.0161976],[20.0610505,50.0160503],[20.0608848,50.0159090],
[20.0608017,50.0158373],[20.0607142,50.0157673],[20.0606329,50.0156979],[20.0605426,50.0156207],[20.0603919,50.0154628],
[20.0602744,50.0152927],[20.0601837,50.0151191],[20.0601041,50.0149467],[20.0600250,50.0147744],[20.0599463,50.0146019],
[20.0598660,50.0144301],[20.0597865,50.0142576],[20.0597073,50.0140847],[20.0596288,50.0139121],[20.0595502,50.0137395],
[20.0594709,50.0135665],[20.0593913,50.0133943],[20.0593121,50.0132211],[20.0592443,50.0130440],[20.0592000,50.0128612],
[20.0591948,50.0127566],[20.0591908,50.0126749],[20.0592225,50.0124895],[20.0592865,50.0123098],[20.0593668,50.0121360],
[20.0594472,50.0119643],[20.0595197,50.0117924],[20.0595757,50.0116207],[20.0596096,50.0114469],[20.0596148,50.0112720],
[20.0595927,50.0110987],[20.0595421,50.0109267],[20.0594662,50.0107647],[20.0594337,50.0107102],[20.0593716,50.0106195],
[20.0593579,50.0105995],[20.0593118,50.0105437],[20.0590693,50.0103008],[20.0587026,50.0100111],[20.0583049,50.0097200],
[20.0575387,50.0092132],[20.0567208,50.0087405],[20.0558563,50.0083042],[20.0554074,50.0081002],[20.0544793,50.0077211],
[20.0530236,50.0072227],[20.0520197,50.0069346],[20.0509757,50.0067031],[20.0501752,50.0065571],[20.0493778,50.0064419],
[20.0482921,50.0063260],[20.0477451,50.0062853],[20.0466466,50.0062368],[20.0451289,50.0062175],[20.0321407,50.0062495],
[20.0314802,50.0062519],[20.0314797,50.0062688],[20.0307525,50.0062658],[20.0307526,50.0062491],[20.0297136,50.0062150],
[20.0287158,50.0061611],[20.0271986,50.0060513],[20.0257313,50.0059105],[20.0237949,50.0056893],[20.0235042,50.0056845],
[20.0232955,50.0057033],[20.0229649,50.0057513],[20.0223057,50.0058752],[20.0220241,50.0059099],[20.0217668,50.0059193],
[20.0214067,50.0058945],[20.0201888,50.0057039],[20.0196845,50.0056646],[20.0193449,50.0056869],[20.0190316,50.0057506],
[20.0185818,50.0059087],[20.0177406,50.0062774],[20.0181780,50.0063857],[20.0181490,50.0064296],[20.0180885,50.0065166],
[20.0180481,50.0065512],[20.0179909,50.0065854],[20.0158872,50.0075143],[20.0157168,50.0075886],[20.0156479,50.0076115],
[20.0155875,50.0076191],[20.0155323,50.0076174],[20.0154188,50.0076003],[20.0153287,50.0075600],[20.0152612,50.0074888],
[20.0152342,50.0073840],[20.0153153,50.0073075],[20.0154437,50.0072521],[20.0156075,50.0071812],[20.0155070,50.0070770],
[20.0141476,50.0076786],[20.0140545,50.0076008],[20.0139544,50.0075641],[20.0138999,50.0075318],[20.0138579,50.0074877],
[20.0138285,50.0073854],[20.0138454,50.0073254],[20.0138898,50.0072652],[20.0139493,50.0072256],[20.0143008,50.0070902],
[20.0159424,50.0064873],[20.0160682,50.0064266],[20.0161610,50.0063710],[20.0162472,50.0063055],[20.0163200,50.0062233],
[20.0163663,50.0061532],[20.0164424,50.0060257],[20.0165092,50.0060026],[20.0170733,50.0061220],[20.0172265,50.0059444],
[20.0173169,50.0057370],[20.0173394,50.0055434],[20.0173156,50.0053825],[20.0172459,50.0052122],[20.0171329,50.0050510],
[20.0169932,50.0049149],[20.0167654,50.0047643],[20.0165087,50.0046484],[20.0161615,50.0045392],[20.0148092,50.0042405],
[20.0141031,50.0040573],[20.0123804,50.0036923],[20.0084382,50.0029827],[20.0072182,50.0027323],[20.0009258,50.0016053],
[19.9996772,50.0013994],[19.9982120,50.0011889],[19.9963082,50.0009896],[19.9949685,50.0008921],[19.9933195,50.0008266],
[19.9915531,50.0008192],[19.9906650,50.0008356],[19.9893524,50.0008843],[19.9849446,50.0011114],[19.9829277,50.0012218],
[19.9824599,50.0012613],[19.9822090,50.0012596],[19.9705920,50.0018814],[19.9696277,50.0019231],[19.9685399,50.0019435],
[19.9678917,50.0019371],[19.9671040,50.0019062],[19.9657393,50.0017916],[19.9649933,50.0016979],[19.9640428,50.0015575],
[19.9611738,50.0010818],[19.9596996,50.0008631],[19.9578307,50.0006489],[19.9562717,50.0005312],[19.9551821,50.0004808],
[19.9543294,50.0004603],[19.9525096,50.0004714],[19.9515565,50.0005085],[19.9503702,50.0005799],[19.9491848,50.0006815],
[19.9482464,50.0007786],[19.9433482,50.0013602],[19.9430199,50.0014097],[19.9426667,50.0014977],[19.9424653,50.0015858],
[19.9423519,50.0016412],[19.9421087,50.0018027],[19.9419275,50.0020006],[19.9418072,50.0022564],[19.9417874,50.0025217],
[19.9418309,50.0027080],[19.9419512,50.0029301],[19.9429762,50.0042908],[19.9432906,50.0047177],[19.9434643,50.0048710],
[19.9439412,50.0053172],[19.9441461,50.0054566],[19.9442215,50.0055138],[19.9442377,50.0055845],[19.9442253,50.0056411],
[19.9441876,50.0056912],[19.9441031,50.0057164],[19.9440138,50.0057345],[19.9438433,50.0057492],[19.9432083,50.0056920],
[19.9431197,50.0056908],[19.9430278,50.0056576],[19.9429593,50.0056154],[19.9429256,50.0055576],[19.9429043,50.0054161],
[19.9430995,50.0051217],[19.9431208,50.0050331],[19.9430937,50.0049126],[19.9427602,50.0045372],[19.9416244,50.0030409],
[19.9414285,50.0028114],[19.9411924,50.0025984],[19.9409508,50.0024163],[19.9404660,50.0021272],[19.9402432,50.0020244],
[19.9398197,50.0018671],[19.9392179,50.0017150],[19.9387410,50.0016435],[19.9374837,50.0015535],[19.9363826,50.0014353],
[19.9355133,50.0013004],[19.9349356,50.0011821],[19.9339466,50.0009486],[19.9332786,50.0007617],[19.9325278,50.0005196],
[19.9320274,50.0003374],[19.9313117,50.0000439],[19.9307144,49.9997743],[19.9299600,49.9993756],[19.9293461,49.9990095],
[19.9287500,49.9986159],[19.9281900,49.9982151],[19.9264053,49.9968475],[19.9210702,49.9991936],[19.9207414,49.9993132],
[19.9204903,49.9988267],[19.9203078,49.9984762],[19.9188579,49.9957473],[19.9187147,49.9955453],[19.9184863,49.9950448],
[19.9172412,49.9926393],[19.9165703,49.9924976],[19.9156545,49.9923268],[19.9147411,49.9921991],[19.9140832,49.9924681],
[19.9135391,49.9926489],[19.9132609,49.9927110],[19.9129599,49.9927505],[19.9126594,49.9927653],[19.9123381,49.9927545],
[19.9120501,49.9927203],[19.9117402,49.9926565],[19.9114491,49.9925663],[19.9111981,49.9924626],[19.9109848,49.9923491],
[19.9104332,49.9919795],[19.9102189,49.9918577],[19.9099672,49.9917429],[19.9096696,49.9916405],[19.9091872,49.9915278],
[19.9073817,49.9913066],[19.9058755,49.9911539],[19.9041379,49.9909964],[19.9027400,49.9908886],[19.9009792,49.9907800],
[19.8996512,49.9907171],[19.8984833,49.9906796],[19.8955270,49.9906412],[19.8930385,49.9906694],[19.8912662,49.9907215],
[19.8900589,49.9907739],[19.8877233,49.9909170],[19.8849552,49.9911573],[19.8826452,49.9914083],[19.8801017,49.9917520],
[19.8777231,49.9921264],[19.8753191,49.9925622],[19.8635522,49.9948778],[19.8609966,49.9953892],[19.8602231,49.9955608],
[19.8595046,49.9957519],[19.8590163,49.9959041],[19.8583129,49.9961499],[19.8578503,49.9963332],[19.8572108,49.9966496],
[19.8559329,49.9974387],[19.8564835,49.9976621],[19.8570793,49.9978437],[19.8570984,49.9979154],[19.8570874,49.9980151],
[19.8570180,49.9981382],[19.8568290,49.9984038],[19.8566769,49.9985676],[19.8564921,49.9986962],[19.8562752,49.9987873],
[19.8560445,49.9988429],[19.8557811,49.9988697],[19.8550548,49.9988448],[19.8546708,49.9988631],[19.8543313,49.9989317],
[19.8540389,49.9990383],[19.8537830,49.9991850],[19.8535778,49.9993527],[19.8533372,49.9996547],[19.8531322,49.9999508],
[19.8528779,50.0003858],[19.8527014,50.0007352],[19.8524855,50.0012764],[19.8523539,50.0016766],[19.8508020,50.0075970],
[19.8505789,50.0083522],[19.8503331,50.0090179],[19.8499363,50.0098648],[19.8496705,50.0103243],[19.8492721,50.0109226],
[19.8489541,50.0113495],[19.8484896,50.0118983],[19.8477857,50.0126273],[19.8471914,50.0131512],[19.8466214,50.0136088],
[19.8462416,50.0138931],[19.8453401,50.0144933],[19.8441211,50.0151790],[19.8434733,50.0154991],[19.8425366,50.0159169],
[19.8412474,50.0164029],[19.8402177,50.0167308],[19.8389035,50.0170926],[19.8357394,50.0178959],[19.8348626,50.0181557],
[19.8340529,50.0184238],[19.8332581,50.0187196],[19.8323178,50.0191129],[19.8314726,50.0195023],[19.8307561,50.0198648],
[19.8305088,50.0200037],[19.8303212,50.0201345],[19.8300929,50.0203955],[19.8299890,50.0207380],[19.8300211,50.0214234],
[19.8300168,50.0215173],[19.8299668,50.0216883],[19.8298438,50.0219148],[19.8294486,50.0223359],[19.8293782,50.0224317],
[19.8292979,50.0224963],[19.8291311,50.0226031],[19.8275814,50.0219536],[19.8270835,50.0223783],[19.8263586,50.0230650],
[19.8277235,50.0237576],[19.8281804,50.0240931],[19.8287023,50.0247222],[19.8289427,50.0252487],[19.8291178,50.0258158],
[19.8291085,50.0262455],[19.8289664,50.0269192],[19.8286452,50.0275741],[19.8281959,50.0287040],[19.8277005,50.0297513],
[19.8265617,50.0316972],[19.8263422,50.0324082],[19.8257083,50.0322656],[19.8246973,50.0320904],[19.8220480,50.0318757],
[19.8210846,50.0318918],[19.8202445,50.0319965],[19.8190760,50.0322347],[19.8186723,50.0323383],[19.8183839,50.0324769],
[19.8181282,50.0326229],[19.8175181,50.0328882],[19.8168209,50.0332822],[19.8165266,50.0333951],[19.8176579,50.0338459],
[19.8178286,50.0339340],[19.8181633,50.0341458],[19.8182093,50.0341556],[19.8183159,50.0341668],[19.8184074,50.0341963],
[19.8184820,50.0342437],[19.8185175,50.0342898],[19.8185331,50.0343329],[19.8185359,50.0343634],[19.8185261,50.0344296],
[19.8184808,50.0344831],[19.8184746,50.0345053],[19.8184738,50.0345240],[19.8184804,50.0345528],[19.8185189,50.0346289],
[19.8185428,50.0347030],[19.8185538,50.0347405],[19.8185618,50.0347655],[19.8185677,50.0348435],[19.8185551,50.0349590],
[19.8185344,50.0350481],[19.8185039,50.0351252],[19.8184659,50.0351941],[19.8184054,50.0352763],[19.8183362,50.0353473],
[19.8182474,50.0354207],[19.8181555,50.0354814],[19.8180693,50.0355278],[19.8180310,50.0355465],[19.8179271,50.0355936],
[19.8177845,50.0356488],[19.8175909,50.0357149],[19.8175188,50.0357400],[19.8172796,50.0358224],[19.8172726,50.0358248],
[19.8171493,50.0358672],[19.8169026,50.0359519],[19.8166562,50.0360368],[19.8159199,50.0362915],[19.8155582,50.0364256],
[19.8152092,50.0365699],[19.8148760,50.0367230],[19.8148692,50.0367262],[19.8148374,50.0367412],[19.8136920,50.0374771],
[19.8132877,50.0378383],[19.8132273,50.0378989],[19.8132114,50.0379139],[19.8130642,50.0380655],[19.8130455,50.0380859],
[19.8129922,50.0381424],[19.8129558,50.0381813],[19.8128857,50.0382567],[19.8128290,50.0383171],[19.8128300,50.0383415],
[19.8128649,50.0392012],[19.8124792,50.0398340],[19.8120854,50.0401491],[19.8114332,50.0404164],[19.8110754,50.0405280],
[19.8109942,50.0405531],[19.8109929,50.0405624],[19.8109874,50.0406491],[19.8109883,50.0407386],[19.8109959,50.0408244],
[19.8110088,50.0409149],[19.8110169,50.0409568],[19.8110286,50.0410118],[19.8110463,50.0410900],[19.8110567,50.0411295],
[19.8110909,50.0412673],[19.8111130,50.0413564],[19.8111356,50.0414439],[19.8111601,50.0415415],[19.8111665,50.0415665],
[19.8111801,50.0416213],[19.8112107,50.0417078],[19.8112461,50.0418065],[19.8112488,50.0418158],[19.8112522,50.0418269],
[19.8112628,50.0418541],[19.8112691,50.0418677],[19.8112735,50.0418751],[19.8112789,50.0418822],[19.8112851,50.0418891],
[19.8112922,50.0418956],[19.8112997,50.0419015],[19.8113078,50.0419069],[19.8113166,50.0419120],[19.8113324,50.0419195],
[19.8113899,50.0419401],[19.8114446,50.0419676],[19.8114732,50.0419963],[19.8114886,50.0420313],[19.8114916,50.0420644],
[19.8114836,50.0421063],[19.8114733,50.0421309],[19.8114369,50.0421715],[19.8114024,50.0422002],[19.8113667,50.0422172],
[19.8113147,50.0422288],[19.8112507,50.0422335],[19.8112356,50.0422329],[19.8112088,50.0422316],[19.8111808,50.0422295],
[19.8111497,50.0422290],[19.8111373,50.0422298],[19.8111270,50.0422309],[19.8110873,50.0422388],[19.8109904,50.0422751],
[19.8108587,50.0423283],[19.8108938,50.0424485],[19.8108918,50.0424537],[19.8108889,50.0424615],[19.8109383,50.0426516],
[19.8109478,50.0426789],[19.8109677,50.0427362],[19.8109936,50.0428275],[19.8110161,50.0429233],[19.8110287,50.0429392],
[19.8110376,50.0429505],[19.8110749,50.0429978],[19.8111601,50.0430391],[19.8111661,50.0430414],[19.8112119,50.0430571],
[19.8112352,50.0431262],[19.8113009,50.0433208],[19.8115940,50.0435686],[19.8121158,50.0438818],[19.8124348,50.0442630],
[19.8127892,50.0446296],[19.8130933,50.0448554],[19.8137006,50.0452539],[19.8145110,50.0460372],[19.8147381,50.0462278],
[19.8151543,50.0466664],[19.8158230,50.0472424],[19.8160204,50.0474585],[19.8170133,50.0483908],[19.8170534,50.0484581],
[19.8171160,50.0484973],[19.8172726,50.0486587],[19.8173526,50.0488515],[19.8177536,50.0491064],[19.8183217,50.0502804],
[19.8189094,50.0506624],[19.8189095,50.0506988],[19.8191173,50.0509975],[19.8191932,50.0511671],[19.8193979,50.0513728],
[19.8194283,50.0513674],[19.8195097,50.0514581],[19.8196165,50.0516548],[19.8196717,50.0519021],[19.8196576,50.0523170],
[19.8196814,50.0524138],[19.8198181,50.0527200],[19.8200619,50.0531419],[19.8201030,50.0531509],[19.8201361,50.0532960],
[19.8201776,50.0533680],[19.8201617,50.0538100],[19.8201179,50.0538958],[19.8201272,50.0540525],[19.8201805,50.0542676],
[19.8202253,50.0543846],[19.8203717,50.0546140],[19.8203990,50.0546173],[19.8204639,50.0547440],[19.8206879,50.0550644],
[19.8207668,50.0553269],[19.8207754,50.0555054],[19.8207351,50.0557998],[19.8208002,50.0559625],[19.8206767,50.0563589],
[19.8207098,50.0565936],[19.8207915,50.0568535],[19.8209664,50.0572072],[19.8210960,50.0574165],[19.8212772,50.0576428],
[19.8215162,50.0578759],[19.8220204,50.0582006],[19.8219547,50.0582189],[19.8215805,50.0582071],[19.8213564,50.0581675],
[19.8210310,50.0582268],[19.8203127,50.0582007],[19.8198594,50.0582210],[19.8196975,50.0582843],[19.8195199,50.0583907],
[19.8183619,50.0586933],[19.8179502,50.0587675],[19.8176229,50.0588484],[19.8175126,50.0588961],[19.8172179,50.0590693],
[19.8165138,50.0592747],[19.8161589,50.0593448],[19.8158861,50.0593564],[19.8153926,50.0593103],[19.8152373,50.0592305],
[19.8150713,50.0592214],[19.8149299,50.0592616],[19.8146384,50.0592061],[19.8145405,50.0590259],[19.8143332,50.0590597],
[19.8140585,50.0590271],[19.8138683,50.0589865],[19.8136185,50.0589030],[19.8128935,50.0588068],[19.8124145,50.0585860],
[19.8121113,50.0586787],[19.8112703,50.0584970],[19.8112134,50.0584589],[19.8110818,50.0584975],[19.8110654,50.0586669],
[19.8109744,50.0590394],[19.8109172,50.0591646],[19.8104806,50.0592054],[19.8104398,50.0594276],[19.8100190,50.0596571],
[19.8098548,50.0597847],[19.8096201,50.0603580],[19.8093090,50.0610023],[19.8090683,50.0610577],[19.8086637,50.0611511],
[19.8086298,50.0611589],[19.8086147,50.0611669],[19.8084943,50.0611925],[19.8083649,50.0612201],[19.8082474,50.0612451],
[19.8082421,50.0612435],[19.8080175,50.0612935],[19.8078254,50.0613363],[19.8076305,50.0613797],[19.8071153,50.0614943],
[19.8052649,50.0619452],[19.8045419,50.0621051],[19.8045470,50.0622040],[19.8045475,50.0622147],[19.8045481,50.0622255],
[19.8045487,50.0622372],[19.8045932,50.0622257],[19.8046363,50.0622131],[19.8046439,50.0622109],[19.8046844,50.0621992],
[19.8047934,50.0621678],[19.8048086,50.0621630],[19.8055916,50.0619684],[19.8058767,50.0619010],[19.8071459,50.0616014],
[19.8080034,50.0614459],[19.8084860,50.0613870],[19.8088184,50.0613664],[19.8093332,50.0613570],[19.8096418,50.0613686],
[19.8096789,50.0621919],[19.8097800,50.0630435],[19.8099256,50.0638392],[19.8106076,50.0670650],[19.8107337,50.0678984],
[19.8107906,50.0685417],[19.8108036,50.0695096],[19.8107479,50.0704025],[19.8106487,50.0713395],[19.8104604,50.0721965],
[19.8108980,50.0723071],[19.8111014,50.0723987],[19.8113103,50.0725384],[19.8114295,50.0726396],[19.8115377,50.0727764],
[19.8116158,50.0729256],[19.8116596,50.0731494],[19.8116253,50.0734167],[19.8114412,50.0740664],[19.8113686,50.0742385],
[19.8112665,50.0743944],[19.8111606,50.0745122],[19.8110030,50.0746369],[19.8103194,50.0750802],[19.8098576,50.0754831],
[19.8097038,50.0756677],[19.8095675,50.0758771],[19.8094387,50.0762995],[19.8087692,50.0788190],[19.8088220,50.0788685],
[19.8088748,50.0789179],[19.8088960,50.0789377],[19.8089133,50.0789539],[19.8089510,50.0789893],[19.8090074,50.0790404],
[19.8090260,50.0790563],[19.8091029,50.0791216],[19.8091127,50.0791299],[19.8092500,50.0792353],[19.8094148,50.0793481],
[19.8095325,50.0794172],[19.8096671,50.0794921],[19.8099190,50.0796199],[19.8100729,50.0796904],[19.8102179,50.0797571],
[19.8103937,50.0798430],[19.8105214,50.0799004],[19.8106492,50.0799595],[19.8107741,50.0800131],[19.8109241,50.0800654],
[19.8110561,50.0801046],[19.8112556,50.0801638],[19.8114285,50.0801936],[19.8115932,50.0802199],[19.8117642,50.0802389],
[19.8119476,50.0802501],[19.8122775,50.0802530],[19.8122875,50.0802523],[19.8124742,50.0802513],[19.8126564,50.0802469],
[19.8129577,50.0802502],[19.8131216,50.0802549],[19.8132879,50.0802678],[19.8134357,50.0802838],[19.8136137,50.0803074],
[19.8138913,50.0803435],[19.8139973,50.0803554],[19.8141461,50.0803760],[19.8142896,50.0803901],[19.8144293,50.0804114],
[19.8145726,50.0804384],[19.8146753,50.0804587],[19.8147980,50.0804906],[19.8148933,50.0805173],[19.8150063,50.0805478],
[19.8151430,50.0805915],[19.8152707,50.0806273],[19.8154226,50.0806644],[19.8156313,50.0807064],[19.8157717,50.0807322],
[19.8161639,50.0808018],[19.8162968,50.0808044],[19.8164395,50.0807993],[19.8166092,50.0807844],[19.8168401,50.0807678],
[19.8170567,50.0807672],[19.8172489,50.0808118],[19.8174121,50.0808839],[19.8175944,50.0809474],[19.8177847,50.0809847],
[19.8179269,50.0809932],[19.8181065,50.0809876],[19.8183021,50.0809954],[19.8184815,50.0810359],[19.8185631,50.0810869],
[19.8186154,50.0811439],[19.8186940,50.0812430],[19.8187637,50.0813348],[19.8188489,50.0814279],[19.8189503,50.0815093],
[19.8191046,50.0816077],[19.8192531,50.0816839],[19.8193706,50.0817308],[19.8194850,50.0817558],[19.8194941,50.0817577],
[19.8196318,50.0817873],[19.8197927,50.0818163],[19.8199333,50.0818420],[19.8200736,50.0818727],[19.8202291,50.0819067],
[19.8203857,50.0819385],[19.8205466,50.0819646],[19.8206869,50.0819923],[19.8208251,50.0820321],[19.8209702,50.0820622],
[19.8210775,50.0821158],[19.8211012,50.0821238],[19.8212572,50.0821772],[19.8214111,50.0822409],[19.8216673,50.0823214],
[19.8217759,50.0823472],[19.8218884,50.0823579],[19.8220100,50.0823737],[19.8221231,50.0823670],[19.8221236,50.0823953],
[19.8221238,50.0824066],[19.8223529,50.0824526],[19.8227452,50.0825301],[19.8232990,50.0825921],[19.8234009,50.0826483],
[19.8234839,50.0827336],[19.8234150,50.0830040],[19.8234364,50.0831094],[19.8234720,50.0831795],[19.8235225,50.0832416],
[19.8235834,50.0833099],[19.8236924,50.0833996],[19.8237051,50.0834248],[19.8238339,50.0834980],[19.8239222,50.0835470],
[19.8240010,50.0835875],[19.8241209,50.0836382],[19.8242636,50.0836930],[19.8243268,50.0837073],[19.8245094,50.0837797],
[19.8245439,50.0837908],[19.8247782,50.0838714],[19.8250113,50.0839753],[19.8251291,50.0840213],[19.8252121,50.0840546],
[19.8253769,50.0841329],[19.8255533,50.0842327],[19.8257459,50.0843417],[19.8258535,50.0844055],[19.8261251,50.0845726],
[19.8262591,50.0846571],[19.8265309,50.0848243],[19.8266578,50.0849151],[19.8268368,50.0850424],[19.8270997,50.0852245],
[19.8273836,50.0854007],[19.8276212,50.0855336],[19.8277294,50.0856007],[19.8278223,50.0856629],[19.8279070,50.0857317],
[19.8279814,50.0857808],[19.8280139,50.0858027],[19.8280624,50.0858708],[19.8280639,50.0859612],[19.8280240,50.0860112],
[19.8281031,50.0860227],[19.8282733,50.0862410],[19.8283562,50.0863444],[19.8284295,50.0864421],[19.8284708,50.0865016],
[19.8285277,50.0865830],[19.8285882,50.0866678],[19.8287446,50.0868777],[19.8288394,50.0870038],[19.8288536,50.0870226],
[19.8289510,50.0871380],[19.8290562,50.0872979],[19.8291983,50.0875001],[19.8292963,50.0876937],[19.8294478,50.0877358],
[19.8295757,50.0877502],[19.8296206,50.0877732],[19.8297297,50.0878430],[19.8298830,50.0879012],[19.8298799,50.0880434],
[19.8298440,50.0881172],[19.8301315,50.0881617],[19.8302212,50.0881761],[19.8303233,50.0881987],[19.8305091,50.0882426],
[19.8306123,50.0882711],[19.8306899,50.0882925],[19.8310877,50.0884155],[19.8312509,50.0884562],[19.8312799,50.0884632],
[19.8314667,50.0884956],[19.8315505,50.0885102],[19.8316046,50.0885144],[19.8317601,50.0885270],[19.8318067,50.0885302],
[19.8319620,50.0885410],[19.8320745,50.0885418],[19.8320954,50.0885431],[19.8321368,50.0885456],[19.8321678,50.0885436],
[19.8321748,50.0885429],[19.8322039,50.0885404],[19.8323194,50.0885370],[19.8324654,50.0885218],[19.8324833,50.0885199],
[19.8326698,50.0884997],[19.8328040,50.0884826],[19.8330720,50.0884609],[19.8332023,50.0884486],[19.8335025,50.0884130],
[19.8335959,50.0884033],[19.8336123,50.0884012],[19.8337898,50.0883789],[19.8338173,50.0883754],[19.8339331,50.0883606],
[19.8340362,50.0883497],[19.8342210,50.0883293],[19.8343904,50.0883106],[19.8344192,50.0883464],[19.8345225,50.0884732],
[19.8345694,50.0885307],[19.8346705,50.0886549],[19.8346869,50.0886781],[19.8346917,50.0886848],[19.8347427,50.0887397],
[19.8349127,50.0889508],[19.8350051,50.0890393],[19.8354121,50.0894270],[19.8355828,50.0895898],[19.8357326,50.0895462],
[19.8359045,50.0894960],[19.8364825,50.0893377],[19.8368352,50.0896631],[19.8372351,50.0900420],[19.8372392,50.0900435],
[19.8372540,50.0900631],[19.8372787,50.0900716],[19.8380219,50.0895351],[19.8381204,50.0895904],[19.8381267,50.0895940],
[19.8381242,50.0895981],[19.8381182,50.0896183],[19.8381187,50.0896412],[19.8381260,50.0896624],[19.8381380,50.0896848],
[19.8381466,50.0897010],[19.8382718,50.0899368],[19.8384092,50.0899719],[19.8384884,50.0900962],[19.8386324,50.0902070],
[19.8388185,50.0903029],[19.8389434,50.0903611],[19.8393609,50.0905601],[19.8396401,50.0905936],[19.8398848,50.0906235],
[19.8399065,50.0906261],[19.8399318,50.0906308],[19.8399488,50.0906354],[19.8399669,50.0906428],[19.8399841,50.0906522],
[19.8399932,50.0906583],[19.8400708,50.0907153],[19.8402528,50.0908519],[19.8404350,50.0909886],[19.8404662,50.0910142],
[19.8404779,50.0910294],[19.8404835,50.0910413],[19.8404858,50.0910685],[19.8404723,50.0911010],[19.8404430,50.0911263],
[19.8403417,50.0911831],[19.8401858,50.0912715],[19.8400680,50.0912042],[19.8399587,50.0911325],[19.8395090,50.0907921],
[19.8392603,50.0906533],[19.8389410,50.0905175],[19.8387026,50.0904835],[19.8385958,50.0904440],[19.8384727,50.0903812],
[19.8383544,50.0903022],[19.8382203,50.0901874],[19.8381249,50.0900623],[19.8380733,50.0899721],[19.8381144,50.0899169],
[19.8381281,50.0898904],[19.8381227,50.0898796],[19.8381158,50.0898696],[19.8380983,50.0898484],[19.8380850,50.0898375],
[19.8380617,50.0898238],[19.8380505,50.0898172],[19.8380433,50.0898140],[19.8380034,50.0898012],[19.8379736,50.0897965],
[19.8379634,50.0897963],[19.8379010,50.0897978],[19.8378705,50.0898026],[19.8378150,50.0898255],[19.8377938,50.0898403],
[19.8377927,50.0898397],[19.8377710,50.0898553],[19.8375994,50.0899766],[19.8375928,50.0899812],[19.8375685,50.0899953],
[19.8375422,50.0900095],[19.8375038,50.0900279],[19.8374756,50.0900410],[19.8374738,50.0900418],[19.8374279,50.0900652],
[19.8374151,50.0900704],[19.8374060,50.0900752],[19.8373693,50.0901029],[19.8373970,50.0901124],[19.8377709,50.0904615],
[19.8378418,50.0904514],[19.8379649,50.0903687],[19.8380821,50.0903491],[19.8381972,50.0903571],[19.8383798,50.0904945],
[19.8384402,50.0906127],[19.8385129,50.0906662],[19.8385806,50.0906746],[19.8387486,50.0906951],[19.8388506,50.0906517],
[19.8388672,50.0906446],[19.8389676,50.0906368],[19.8390111,50.0906483],[19.8390137,50.0906490],[19.8390597,50.0906612],
[19.8393174,50.0907779],[19.8394274,50.0908461],[19.8394919,50.0909946],[19.8395601,50.0910909],[19.8396022,50.0911193],
[19.8396340,50.0911281],[19.8397680,50.0911764],[19.8398431,50.0912022],[19.8398905,50.0912428],[19.8399824,50.0912901],
[19.8399960,50.0913026],[19.8400960,50.0914450],[19.8401875,50.0914904],[19.8402950,50.0915149],[19.8404739,50.0915301],
[19.8406079,50.0915652],[19.8406611,50.0915785],[19.8407150,50.0916004],[19.8408178,50.0917098],[19.8408803,50.0917611],
[19.8409606,50.0917943],[19.8410356,50.0918067],[19.8411183,50.0918335],[19.8413226,50.0918566],[19.8415396,50.0918250],
[19.8416346,50.0917734],[19.8417374,50.0917945],[19.8418780,50.0918218],[19.8419248,50.0918634],[19.8421074,50.0919712],
[19.8422720,50.0920787],[19.8424377,50.0921480],[19.8426023,50.0922374],[19.8428679,50.0922867],[19.8431119,50.0923872],
[19.8432197,50.0923446],[19.8433197,50.0922616],[19.8435176,50.0922105],[19.8436344,50.0922120],[19.8436698,50.0922030],
[19.8437574,50.0921738],[19.8439340,50.0921758],[19.8442580,50.0921821],[19.8443644,50.0922019],[19.8443987,50.0922073],
[19.8444397,50.0922152],[19.8446404,50.0922147],[19.8448170,50.0921947],[19.8449182,50.0922072],[19.8449281,50.0922092],
[19.8450011,50.0922242],[19.8451425,50.0923068],[19.8452007,50.0923551],[19.8453189,50.0923994],[19.8454838,50.0924413],
[19.8455896,50.0924520],[19.8456917,50.0925170],[19.8458861,50.0925790],[19.8460171,50.0926233],[19.8461238,50.0926443],
[19.8462780,50.0927223],[19.8464000,50.0927767],[19.8465198,50.0928013],[19.8465253,50.0928310],[19.8466496,50.0929229],
[19.8467885,50.0929496],[19.8468834,50.0930254],[19.8469328,50.0930252],[19.8471305,50.0930812],[19.8472136,50.0930602],
[19.8472834,50.0930793],[19.8473787,50.0930928],[19.8474082,50.0931169],[19.8475561,50.0932292],[19.8476416,50.0932076],
[19.8477497,50.0932277],[19.8477998,50.0932568],[19.8481362,50.0932740],[19.8483996,50.0933632],[19.8485357,50.0934305],
[19.8486945,50.0934562],[19.8489454,50.0934858],[19.8490960,50.0935242],[19.8495066,50.0937015],[19.8497737,50.0937247],
[19.8500256,50.0938841],[19.8502293,50.0939565],[19.8504667,50.0940643],[19.8508467,50.0942240],[19.8511200,50.0942785],
[19.8511536,50.0942852],[19.8515414,50.0943622],[19.8518873,50.0944317],[19.8521402,50.0943902],[19.8525498,50.0943232],
[19.8529609,50.0942556],[19.8532177,50.0942019],[19.8534809,50.0941467],[19.8537515,50.0940899],[19.8551368,50.0937596],
[19.8554505,50.0936917],[19.8560309,50.0936048],[19.8564147,50.0935817],[19.8567590,50.0935800],[19.8571320,50.0935908],
[19.8574417,50.0935931],[19.8577266,50.0935951],[19.8577883,50.0935891],[19.8582694,50.0935427],[19.8586342,50.0935075],
[19.8589464,50.0934478],[19.8590304,50.0934214],[19.8591301,50.0933946],[19.8595482,50.0932740],[19.8596206,50.0932235],
[19.8596759,50.0932256],[19.8597202,50.0932150],[19.8598900,50.0931748],[19.8599934,50.0931491],[19.8600976,50.0931242],
[19.8602316,50.0930910],[19.8603511,50.0930617],[19.8604655,50.0930348],[19.8605895,50.0930026],[19.8606955,50.0929751],
[19.8608090,50.0929455],[19.8609189,50.0929160],[19.8610265,50.0928877],[19.8611433,50.0928414],[19.8612518,50.0927993],
[19.8613685,50.0927522],[19.8615976,50.0926611],[19.8616122,50.0926895],[19.8616043,50.0927278],[19.8618509,50.0929958],
[19.8619610,50.0931164],[19.8620913,50.0932618],[19.8622185,50.0934037],[19.8623202,50.0935275],[19.8624019,50.0936128],
[19.8624256,50.0936372],[19.8624546,50.0936700],[19.8625918,50.0938261],[19.8627330,50.0939782],[19.8628686,50.0941371],
[19.8630072,50.0942930],[19.8631470,50.0944524],[19.8632960,50.0946146],[19.8634059,50.0947433],[19.8635529,50.0949070],
[19.8636787,50.0950605],[19.8638251,50.0952153],[19.8639624,50.0953723],[19.8641123,50.0955356],[19.8642521,50.0956786],
[19.8643574,50.0958153],[19.8645138,50.0959937],[19.8646640,50.0961622],[19.8647949,50.0963052],[19.8649365,50.0964606],
[19.8650741,50.0966131],[19.8652323,50.0967903],[19.8652379,50.0967965],[19.8653796,50.0969516],[19.8655164,50.0971073],
[19.8656521,50.0972657],[19.8657905,50.0974203],[19.8658626,50.0975000],[19.8659533,50.0976002],[19.8660656,50.0977372],
[19.8665986,50.0983187],[19.8666616,50.0983924],[19.8667223,50.0984536],[19.8668205,50.0985526],[19.8669401,50.0986912],
[19.8669620,50.0987166],[19.8670437,50.0988042],[19.8671143,50.0988799],[19.8671443,50.0989140],[19.8673675,50.0991574],
[19.8673894,50.0991804],[19.8673890,50.0991810],[19.8674445,50.0992414],[19.8675037,50.0991533],[19.8680055,50.0984062],
[19.8684511,50.0978378],[19.8687956,50.0975911],[19.8700840,50.0969953],[19.8705750,50.0967539],[19.8715173,50.0962989],
[19.8723998,50.0958065],[19.8728329,50.0955585],[19.8742393,50.0947532],[19.8747890,50.0944204],[19.8769288,50.0929872],
[19.8781497,50.0922801],[19.8784313,50.0921396],[19.8793497,50.0916984],[19.8809248,50.0910052],[19.8811795,50.0908589],
[19.8830024,50.0900508],[19.8837572,50.0897334],[19.8853460,50.0891379],[19.8860040,50.0888261],[19.8871987,50.0883331],
[19.8875623,50.0881972],[19.8882393,50.0879476],[19.8889837,50.0876805],[19.8896341,50.0874828],[19.8905486,50.0873215],
[19.8912018,50.0872146],[19.8915253,50.0871915],[19.8917220,50.0871958],[19.8919438,50.0872199],[19.8920444,50.0873333],
[19.8921415,50.0874814],[19.8921919,50.0878303],[19.8922521,50.0880157],[19.8924741,50.0884735],[19.8928892,50.0899053],
[19.8932642,50.0908525],[19.8934171,50.0911294],[19.8934631,50.0912615],[19.8935250,50.0914770],[19.8935962,50.0918876],
[19.8936315,50.0922160],[19.8936422,50.0926972],[19.8935679,50.0931145],[19.8934163,50.0935756],[19.8933354,50.0937722],
[19.8931847,50.0939729],[19.8930501,50.0942110],[19.8930232,50.0942571],[19.8930266,50.0943030],[19.8930842,50.0943734],
[19.8930800,50.0944754],[19.8930039,50.0945486],[19.8928571,50.0946036],[19.8927964,50.0946545],[19.8924469,50.0952881],
[19.8921211,50.0958228],[19.8915302,50.0966679],[19.8885474,50.1018098],[19.8880956,50.1025192],[19.8877398,50.1029415],
[19.8873195,50.1033352],[19.8868762,50.1036684],[19.8863459,50.1039958],[19.8855761,50.1043914],[19.8797030,50.1072506],
[19.8791085,50.1075581],[19.8786812,50.1078210],[19.8783908,50.1080292],[19.8779761,50.1083744],[19.8751663,50.1109712],
[19.8752903,50.1110475],[19.8755074,50.1112149],[19.8755142,50.1112218],[19.8757023,50.1114115],[19.8758382,50.1115737],
[19.8758986,50.1116463],[19.8759511,50.1117105],[19.8760262,50.1117962],[19.8760997,50.1118696],[19.8761809,50.1119545],
[19.8762799,50.1120512],[19.8763487,50.1121267],[19.8764249,50.1122167],[19.8764931,50.1122910],[19.8765490,50.1123595],
[19.8765958,50.1124265],[19.8766281,50.1124804],[19.8766591,50.1125301],[19.8766810,50.1125750],[19.8767116,50.1126395],
[19.8767309,50.1126879],[19.8767513,50.1127556],[19.8767607,50.1127948],[19.8767691,50.1128410],[19.8767951,50.1129714],
[19.8768296,50.1130107],[19.8767957,50.1130443],[19.8767734,50.1130817],[19.8767547,50.1131170],[19.8767466,50.1131519],
[19.8767415,50.1131842],[19.8767505,50.1132441],[19.8767670,50.1133371],[19.8767775,50.1133924],[19.8767996,50.1134687],
[19.8768138,50.1135143],[19.8768351,50.1135654],[19.8768671,50.1136311],[19.8769172,50.1137131],[19.8769936,50.1138595],
[19.8770623,50.1140057],[19.8770639,50.1140086],[19.8771420,50.1141506],[19.8771880,50.1142304],[19.8772405,50.1143165],
[19.8772830,50.1144052],[19.8773359,50.1144832],[19.8774177,50.1146136],[19.8774943,50.1147282],[19.8775906,50.1148675],
[19.8776585,50.1149713],[19.8777182,50.1150726],[19.8777523,50.1151637],[19.8778016,50.1152627],[19.8778599,50.1153798],
[19.8779036,50.1154759],[19.8779435,50.1155868],[19.8779808,50.1156888],[19.8780767,50.1159171],[19.8781307,50.1160297],
[19.8781802,50.1161355],[19.8782188,50.1162150],[19.8782564,50.1163075],[19.8782951,50.1164018],[19.8783250,50.1164734],
[19.8783540,50.1165499],[19.8783828,50.1166163],[19.8784036,50.1166498],[19.8784702,50.1167890],[19.8785011,50.1168625],
[19.8785310,50.1169372],[19.8785790,50.1170278],[19.8786574,50.1171611],[19.8787287,50.1173296],[19.8787536,50.1174377],
[19.8787791,50.1175488],[19.8788048,50.1176969],[19.8788085,50.1177716],[19.8788216,50.1178722],[19.8788398,50.1179690],
[19.8788561,50.1180724],[19.8788729,50.1181682],[19.8788802,50.1181969],[19.8789080,50.1182652],[19.8789328,50.1183177],
[19.8789694,50.1183755],[19.8789902,50.1184150],[19.8790089,50.1184462],[19.8790300,50.1184776],[19.8791396,50.1186273],
[19.8792013,50.1187043],[19.8792592,50.1187803],[19.8793115,50.1188605],[19.8793761,50.1189543],[19.8794380,50.1190310],
[19.8795173,50.1191257],[19.8795699,50.1191854],[19.8796073,50.1192278],[19.8796956,50.1193228],[19.8797049,50.1193328],
[19.8797180,50.1193521],[19.8797188,50.1193533],[19.8797334,50.1193752],[19.8798067,50.1194557],[19.8825760,50.1194579],
[19.8856386,50.1194139],[19.8873910,50.1193611],[19.8886936,50.1192790],[19.8923580,50.1189655],[19.8946502,50.1186781],
[19.8976590,50.1181649],[19.8993685,50.1178029],[19.9016554,50.1172647],[19.9034485,50.1167945],[19.9061954,50.1159650],
[19.9074199,50.1155242],[19.9081777,50.1153403],[19.9086849,50.1152161],[19.9088005,50.1151401],[19.9088568,50.1149815],
[19.9089592,50.1148470],[19.9091308,50.1147102],[19.9092721,50.1146595],[19.9094291,50.1146342],[19.9097462,50.1146534],
[19.9097921,50.1146549],[19.9098439,50.1146436],[19.9099394,50.1145720],[19.9101156,50.1143818],[19.9101323,50.1143347],
[19.9101462,50.1143015],[19.9101333,50.1142732],[19.9101605,50.1142143],[19.9102105,50.1141058],[19.9102786,50.1139684],
[19.9103157,50.1138689],[19.9103603,50.1137037],[19.9103912,50.1136033],[19.9104414,50.1135083],[19.9105106,50.1133843],
[19.9105652,50.1132803],[19.9106452,50.1131500],[19.9107110,50.1130008],[19.9107418,50.1128688],[19.9107580,50.1127971],
[19.9107791,50.1127280],[19.9108010,50.1126575],[19.9108441,50.1125804],[19.9109226,50.1124633],[19.9110006,50.1123532],
[19.9110679,50.1122651],[19.9111369,50.1121492],[19.9112598,50.1119532],[19.9112786,50.1119242],[19.9112973,50.1118951],
[19.9113380,50.1118096],[19.9114397,50.1116834],[19.9115032,50.1115961],[19.9115558,50.1114536],[19.9115732,50.1113380],
[19.9116021,50.1111992],[19.9116374,50.1110761],[19.9117008,50.1109440],[19.9117853,50.1108203],[19.9119324,50.1105775],
[19.9120563,50.1103240],[19.9121287,50.1101959],[19.9122136,50.1100698],[19.9122867,50.1099495],[19.9123738,50.1097160],
[19.9124134,50.1096010],[19.9124601,50.1094852],[19.9124897,50.1093630],[19.9124901,50.1092960],[19.9125035,50.1092369],
[19.9125381,50.1091333],[19.9125706,50.1090557],[19.9126016,50.1089820],[19.9126470,50.1088793],[19.9126926,50.1087639],
[19.9127670,50.1085901],[19.9128237,50.1084296],[19.9128747,50.1083024],[19.9129589,50.1080783],[19.9130306,50.1079131],
[19.9131230,50.1077033],[19.9132168,50.1074934],[19.9133320,50.1072389],[19.9133925,50.1071119],[19.9134045,50.1070866],
[19.9134148,50.1070651],[19.9135432,50.1067737],[19.9136448,50.1065409],[19.9137547,50.1063274],[19.9138152,50.1062064],
[19.9138187,50.1061981],[19.9138459,50.1061355],[19.9138789,50.1060341],[19.9139092,50.1059614],[19.9139427,50.1058905],
[19.9140231,50.1057358],[19.9140797,50.1056129],[19.9141263,50.1054831],[19.9141342,50.1054543],[19.9141672,50.1053355],
[19.9141749,50.1052838],[19.9141770,50.1052712],[19.9141900,50.1051321],[19.9142114,50.1050622],[19.9142771,50.1048140],
[19.9142802,50.1048025],[19.9142951,50.1047544],[19.9143498,50.1045795],[19.9143602,50.1045454],[19.9143777,50.1044896],
[19.9143733,50.1044751],[19.9143993,50.1043634],[19.9144369,50.1042510],[19.9144743,50.1041492],[19.9145152,50.1040537],
[19.9145240,50.1040331],[19.9145598,50.1039165],[19.9145637,50.1039037],[19.9145766,50.1038734],[19.9145865,50.1038238],
[19.9145981,50.1037646],[19.9146099,50.1037053],[19.9146216,50.1036459],[19.9146286,50.1036152],[19.9146323,50.1035974],
[19.9146489,50.1035234],[19.9146607,50.1034914],[19.9146788,50.1034091],[19.9147019,50.1033221],[19.9147128,50.1032826],
[19.9147312,50.1031910],[19.9147383,50.1031570],[19.9147558,50.1030868],[19.9147624,50.1030229],[19.9147791,50.1029062],
[19.9148014,50.1027952],[19.9148296,50.1026690],[19.9148309,50.1026636],[19.9148451,50.1025889],[19.9148529,50.1025477],
[19.9148554,50.1025284],[19.9148562,50.1025107],[19.9148567,50.1025073],[19.9148582,50.1024800],[19.9148648,50.1024287],
[19.9148656,50.1024246],[19.9148664,50.1024185],[19.9148750,50.1023046],[19.9148763,50.1022878],[19.9148915,50.1021676],
[19.9148927,50.1021597],[19.9149155,50.1020632],[19.9149338,50.1019339],[19.9149357,50.1019235],[19.9149467,50.1018697],
[19.9149583,50.1018074],[19.9149622,50.1017921],[19.9149809,50.1017229],[19.9149863,50.1017031],[19.9149985,50.1016532],
[19.9150154,50.1015834],[19.9150160,50.1015809],[19.9150315,50.1015133],[19.9150455,50.1014516],[19.9150468,50.1014427],
[19.9150592,50.1013711],[19.9150712,50.1012994],[19.9150741,50.1012824],[19.9150847,50.1012193],[19.9151028,50.1011060],
[19.9151168,50.1009747],[19.9151243,50.1009341],[19.9151817,50.1009241],[19.9152134,50.1009187],[19.9155325,50.1008636],
[19.9157112,50.1008262],[19.9159785,50.1007940],[19.9161015,50.1007754],[19.9162239,50.1007633],[19.9162797,50.1007492],
[19.9163392,50.1007342],[19.9164001,50.1007189],[19.9164612,50.1007035],[19.9167146,50.1006462],[19.9167898,50.1006330],
[19.9169027,50.1006089],[19.9170354,50.1005821],[19.9172654,50.1005381],[19.9173423,50.1005177],[19.9174323,50.1004937],
[19.9175449,50.1004637],[19.9176488,50.1004351],[19.9176835,50.1004270],[19.9176926,50.1004245],[19.9178873,50.1003774],
[19.9180317,50.1003455],[19.9181440,50.1003246],[19.9182478,50.1003029],[19.9183606,50.1002828],[19.9184695,50.1002592],
[19.9185823,50.1002407],[19.9187801,50.1002039],[19.9188669,50.1001895],[19.9189054,50.1001864],[19.9189144,50.1003603],
[19.9189048,50.1004702],[19.9189068,50.1004971],[19.9189125,50.1005742],[19.9189264,50.1007438],[19.9189413,50.1008293],
[19.9189435,50.1008422],[19.9189534,50.1009001],[19.9189504,50.1009378],[19.9189429,50.1010313],[19.9189417,50.1010338],
[19.9189158,50.1010922],[19.9188602,50.1012377],[19.9188181,50.1013103],[19.9187987,50.1013436],[19.9188073,50.1013464],
[19.9189208,50.1013842],[19.9190347,50.1014219],[19.9191033,50.1014448],[19.9191481,50.1014581],[19.9191552,50.1014602],
[19.9192617,50.1014937],[19.9193172,50.1015112],[19.9194723,50.1015656],[19.9195126,50.1015798],[19.9195215,50.1015830],
[19.9195792,50.1016041],[19.9197292,50.1016579],[19.9197371,50.1016607],[19.9198357,50.1017029],[19.9199416,50.1017482],
[19.9199506,50.1017521],[19.9200540,50.1017854],[19.9201670,50.1018220],[19.9202183,50.1018385],[19.9202786,50.1018616],
[19.9203882,50.1019035],[19.9204810,50.1019389],[19.9204966,50.1019446],[19.9206067,50.1019839],[19.9207400,50.1020315],
[19.9207837,50.1020488],[19.9207891,50.1020509],[19.9209463,50.1021135],[19.9210214,50.1021434],[19.9208863,50.1022656],
[19.9209182,50.1022807],[19.9210975,50.1023584],[19.9211856,50.1023967],[19.9213837,50.1024765],[19.9214098,50.1024876],
[19.9217270,50.1026238],[19.9221344,50.1027989],[19.9222026,50.1028282],[19.9225162,50.1024457],[19.9225397,50.1024044],
[19.9225252,50.1023500],[19.9224686,50.1022976],[19.9224446,50.1022258],[19.9224503,50.1021411],[19.9224889,50.1020698],
[19.9225607,50.1020102],[19.9226915,50.1019671],[19.9228487,50.1019546],[19.9229979,50.1019918],[19.9231194,50.1020496],
[19.9231938,50.1021559],[19.9232339,50.1022553],[19.9232826,50.1022964],[19.9235494,50.1024115],[19.9255613,50.1030545],
[19.9263182,50.1032656],[19.9270480,50.1034408],[19.9266457,50.1040170],[19.9263411,50.1044731],[19.9264073,50.1044913],
[19.9264469,50.1043841],[19.9265948,50.1045101],[19.9266072,50.1045549],[19.9266979,50.1046559],[19.9267478,50.1046983],
[19.9268885,50.1047717],[19.9269465,50.1047958],[19.9272486,50.1049147],[19.9273128,50.1049399],[19.9277057,50.1050833],
[19.9279206,50.1049988],[19.9280751,50.1049464],[19.9281643,50.1049208],[19.9281882,50.1048554],[19.9282037,50.1047844],
[19.9282039,50.1046905],[19.9281817,50.1045929],[19.9281572,50.1044939],[19.9281565,50.1043271],[19.9282512,50.1042461],
[19.9283122,50.1041258],[19.9285803,50.1039669],[19.9287777,50.1037813],[19.9288879,50.1037324],[19.9289593,50.1037871],
[19.9289997,50.1038089],[19.9291250,50.1038763],[19.9293854,50.1040271],[19.9295335,50.1041119],[19.9296958,50.1041997],
[19.9299859,50.1043623],[19.9303779,50.1045815],[19.9308037,50.1048133],[19.9307012,50.1048990],[19.9306055,50.1049904],
[19.9304413,50.1052236],[19.9303912,50.1053133],[19.9303503,50.1053677],[19.9302604,50.1054683],[19.9301571,50.1055497],
[19.9301392,50.1055388],[19.9299941,50.1057319],[19.9298602,50.1059327],[19.9297414,50.1061167],[19.9296012,50.1063257],
[19.9294609,50.1065277],[19.9293863,50.1066535],[19.9294081,50.1066597],[19.9296926,50.1067200],[19.9297685,50.1067361],
[19.9301672,50.1067963],[19.9304677,50.1068311],[19.9305276,50.1068656],[19.9305664,50.1069328],[19.9306548,50.1070860],
[19.9308867,50.1072286],[19.9309532,50.1072737],[19.9309784,50.1072905],[19.9312129,50.1074775],[19.9312338,50.1074942],
[19.9339642,50.1071530],[19.9346149,50.1069500],[19.9348260,50.1068612],[19.9360516,50.1061559],[19.9363788,50.1059914],
[19.9364829,50.1059616],[19.9366104,50.1059464],[19.9368181,50.1059403],[19.9369916,50.1059516],[19.9373153,50.1059972],
[19.9378104,50.1060943],[19.9386570,50.1063126],[19.9392936,50.1065475],[19.9405097,50.1070405],[19.9414507,50.1074760],
[19.9415536,50.1075070],[19.9416865,50.1075313],[19.9418071,50.1075339],[19.9419704,50.1075251],[19.9420634,50.1075363],
[19.9421416,50.1075734],[19.9421859,50.1076119],[19.9427015,50.1080830],[19.9427410,50.1080972],[19.9431441,50.1081370],
[19.9433644,50.1081694],[19.9438795,50.1082749],[19.9442058,50.1083625],[19.9448236,50.1085743],[19.9454808,50.1088735],
[19.9455774,50.1088999],[19.9456542,50.1088959],[19.9457148,50.1088749],[19.9458534,50.1087981],[19.9470393,50.1078638],
[19.9470750,50.1078424],[19.9471274,50.1078242],[19.9471881,50.1078120],[19.9472827,50.1078100],[19.9477649,50.1078336],
[19.9481062,50.1078649],[19.9488210,50.1080797],[19.9492680,50.1082229],[19.9507884,50.1087006],[19.9510241,50.1087580],
[19.9512728,50.1087201],[19.9522391,50.1084530],[19.9526752,50.1083525],[19.9531381,50.1082796],[19.9533564,50.1082605],
[19.9539076,50.1082623],[19.9541542,50.1082856],[19.9543375,50.1083304],[19.9547265,50.1084623],[19.9549087,50.1084964],
[19.9564808,50.1085082],[19.9580229,50.1082653],[19.9581526,50.1082228],[19.9583545,50.1082467],[19.9585049,50.1082649],
[19.9599470,50.1083103],[19.9602397,50.1083534],[19.9606059,50.1084889],[19.9612565,50.1087692],[19.9616404,50.1089565],
[19.9620890,50.1092242],[19.9621840,50.1092654],[19.9622934,50.1092832],[19.9653483,50.1088057],[19.9654085,50.1087744],
[19.9654399,50.1087117],[19.9653884,50.1084644],[19.9653392,50.1079427],[19.9653053,50.1077670],[19.9652345,50.1074483],
[19.9651217,50.1069938],[19.9650155,50.1067410],[19.9646300,50.1059776],[19.9644713,50.1054677],[19.9644086,50.1054370],
[19.9643492,50.1054343],[19.9632937,50.1055684],[19.9624529,50.1056409],[19.9624329,50.1054246],[19.9625745,50.1054201],
[19.9631568,50.1053875],[19.9643032,50.1052771],[19.9643638,50.1052339],[19.9643858,50.1051775],[19.9648980,50.1051113],
[19.9649833,50.1051626],[19.9650402,50.1053514],[19.9649895,50.1054103],[19.9649844,50.1054554],[19.9654329,50.1068168],
[19.9657196,50.1080135],[19.9657828,50.1086455],[19.9659056,50.1091974],[19.9660995,50.1091643],[19.9662148,50.1091385],
[19.9663301,50.1091150],[19.9665176,50.1090732],[19.9666907,50.1090340],[19.9668262,50.1090006],[19.9669451,50.1089622],
[19.9670045,50.1089501],[19.9672045,50.1088908],[19.9674164,50.1088224],[19.9676007,50.1087588],[19.9677696,50.1086963],
[19.9679325,50.1086360],[19.9681072,50.1085714],[19.9682559,50.1085189],[19.9682852,50.1085015],[19.9683677,50.1084634],
[19.9683909,50.1084520],[19.9684585,50.1084153],[19.9686117,50.1083188],[19.9689011,50.1081288],[19.9690623,50.1080138],
[19.9691390,50.1079574],[19.9692217,50.1078966],[19.9692370,50.1078838],[19.9693791,50.1077651],[19.9696415,50.1076418],
[19.9697488,50.1075734],[19.9698918,50.1075166],[19.9701390,50.1074048],[19.9702708,50.1073520],[19.9705199,50.1072653],
[19.9705795,50.1072424],[19.9706524,50.1072283],[19.9706487,50.1072099],[19.9708816,50.1071502],[19.9716108,50.1069634],
[19.9717466,50.1069356],[19.9718953,50.1069002]
]
]
}
}
]
}